NORAD_CAT_ID,OBJECT_NAME,OBJECT_TYPE,EPOCH,MEAN_MOTION,ECCENTRICITY,INCLINATION,RA_OF_ASC_NODE,ARG_OF_PERICENTER,MEAN_ANOMALY,BSTAR,MEAN_MOTION_DOT,MEAN_MOTION_DDOT,TLE_LINE0,TLE_LINE1,TLE_LINE2,SEMIMAJOR_AXIS,PERIOD,APOGEE,PERIGEE,DECAYED
53804.0,STARLINK-4729,PAYLOAD,2024-02-07 11:40:37,15.08846622,0.0001632,53.2173,76.0777,107.4823,252.6348,8.6853e-05,1.095e-05,0.0,0 STARLINK-4729,1 53804U 22111AH  24038.48654745  .00001095  00000-0  86853-4 0  9996,2 53804  53.2173  76.0777 0001632 107.4823 252.6348 15.08846622 78977,6917.86,95.437,540.854,538.596,0.0
53804.0,STARLINK-4729,PAYLOAD,2024-02-07 19:37:34,15.08833374,0.000185,53.2179,74.5907,84.8135,275.3068,2.8236e-05,1.61e-06,0.0,0 STARLINK-4729,1 53804U 22111AH  24038.81775953  .00000161  00000-0  28236-4 0  9992,2 53804  53.2179  74.5907 0001850  84.8135 275.3068 15.08833374 78215,6917.901,95.438,541.045,538.486,0.0
53804.0,STARLINK-4729,PAYLOAD,2024-02-08 08:20:39,15.08837093,0.000141,53.217,72.2136,88.6161,271.4993,2.8492e-06,-2.43e-06,0.0,0 STARLINK-4729,1 53804U 22111AH  24039.34767908 -.00000243  00000-0  28492-5 0  9999,2 53804  53.2170  72.2136 0001410  88.6161 271.4993 15.08837093 79103,6917.889,95.438,540.73,538.779,0.0
53804.0,STARLINK-4729,PAYLOAD,2024-02-09 11:22:11,15.08852048,0.0001435,53.2152,67.1552,82.1305,277.985,9.6925e-05,1.255e-05,0.0,0 STARLINK-4729,1 53804U 22111AH  24040.47374693  .00001255  00000-0  96925-4 0  9998,2 53804  53.2152  67.1552 0001435  82.1305 277.9850 15.08852048 78462,6917.844,95.437,540.701,538.716,0.0
53804.0,STARLINK-4729,PAYLOAD,2024-02-10 01:40:41,15.0883107,0.0001431,53.2155,64.4804,79.4727,280.6426,4.8889e-05,4.9e-06,0.0,0 STARLINK-4729,1 53804U 22111AH  24041.06992290  .00000490  00000-0  48889-4 0  9999,2 53804  53.2155  64.4804 0001431  79.4727 280.6426 15.08831070 78550,6917.908,95.438,540.763,538.783,0.0
53804.0,STARLINK-4729,PAYLOAD,2024-02-10 06:26:50,15.08835675,0.0001451,53.2159,63.5889,90.8014,269.3145,8.9459e-05,1.136e-05,0.0,0 STARLINK-4729,1 53804U 22111AH  24041.26864052  .00001136  00000-0  89459-4 0  9991,2 53804  53.2159  63.5889 0001451  90.8014 269.3145 15.08835675 79395,6917.894,95.438,540.762,538.755,0.0
53804.0,STARLINK-4729,PAYLOAD,2024-02-11 11:03:46,15.08854241,0.0001735,53.2171,58.2346,123.7214,236.3943,-4.7647e-05,-1.047e-05,0.0,0 STARLINK-4729,1 53804U 22111AH  24042.46095159 -.00001047  00000-0 -47647-4 0  9994,2 53804  53.2171  58.2346 0001735 123.7214 236.3943 15.08854241 78761,6917.837,95.437,540.902,538.502,0.0
53804.0,STARLINK-4729,PAYLOAD,2024-02-12 07:43:47,15.08849331,0.0001843,53.2183,54.3657,109.2969,250.8223,0.00014306,1.99e-05,0.0,0 STARLINK-4729,1 53804U 22111AH  24043.32207271  .00001990  00000-0  14306-3 0  9990,2 53804  53.2183  54.3657 0001843 109.2969 250.8223 15.08849331 78892,6917.852,95.437,540.992,538.442,0.0
53804.0,STARLINK-4729,PAYLOAD,2024-02-13 01:13:02,15.08836274,0.0001624,53.2173,51.0957,100.0735,260.044,-3.7618e-05,-8.87e-06,0.0,0 STARLINK-4729,1 53804U 22111AH  24044.05072093 -.00000887  00000-0 -37618-4 0  9991,2 53804  53.2173  51.0957 0001624 100.0735 260.0440 15.08836274 79005,6917.892,95.438,540.88,538.633,0.0
53804.0,STARLINK-4729,PAYLOAD,2024-02-13 07:34:35,15.08837922,0.0001371,53.2175,49.9078,93.3691,266.7458,3.0521e-05,1.98e-06,0.0,0 STARLINK-4729,1 53804U 22111AH  24044.31568531  .00000198  00000-0  30521-4 0  9996,2 53804  53.2175  49.9078 0001371  93.3691 266.7458 15.08837922 79857,6917.887,95.438,540.7,538.803,0.0
53804.0,STARLINK-4729,PAYLOAD,2024-02-13 17:06:54,15.08838234,0.000134,53.2176,48.1244,89.167,270.9476,7.3706e-06,-1.71e-06,0.0,0 STARLINK-4729,1 53804U 22111AH  24044.71312683 -.00000171  00000-0  73706-5 0  9990,2 53804  53.2176  48.1244 0001340  89.1670 270.9476 15.08838234 79911,6917.886,95.438,540.678,538.824,0.0
53804.0,STARLINK-4729,PAYLOAD,2024-02-14 04:14:35,15.08848554,0.0001201,53.2165,46.0419,83.7418,276.3711,1.3115e-06,-2.67e-06,0.0,0 STARLINK-4729,1 53804U 22111AH  24045.17680222 -.00000267  00000-0  13115-5 0  9992,2 53804  53.2165  46.0419 0001201  83.7418 276.3711 15.08848554 79172,6917.854,95.437,540.55,538.888,0.0
53804.0,STARLINK-4729,PAYLOAD,2024-02-14 09:00:44,15.0885164,0.0001339,53.2166,45.1507,94.8263,265.2883,0.00013487,1.86e-05,0.0,0 STARLINK-4729,1 53804U 22111AH  24045.37551695  .00001860  00000-0  13487-3 0  9994,2 53804  53.2166  45.1507 0001339  94.8263 265.2883 15.08851640 80016,6917.845,95.437,540.636,538.784,0.0
53804.0,STARLINK-4729,PAYLOAD,2024-02-14 16:57:40,15.08849556,0.0001409,53.2164,43.6622,88.3855,271.7298,0.00016784,2.385e-05,0.0,0 STARLINK-4729,1 53804U 22111AH  24045.70671753  .00002385  00000-0  16784-3 0  9995,2 53804  53.2164  43.6622 0001409  88.3855 271.7298 15.08849556 80068,6917.851,95.437,540.691,538.741,0.0
53804.0,STARLINK-4729,PAYLOAD,2024-02-15 04:05:23,15.08836293,0.0002077,53.2163,41.5814,82.8121,277.3107,0.00010883,1.444e-05,0.0,0 STARLINK-4729,1 53804U 22111AH  24046.17040852  .00001444  00000-0  10883-3 0  9996,2 53804  53.2163  41.5814 0002077  82.8121 277.3107 15.08836293 79326,6917.892,95.438,541.194,538.32,0.0
53804.0,STARLINK-4729,PAYLOAD,2024-02-15 07:16:09,15.0883752,0.0001368,53.2165,40.988,86.3878,273.727,0.00013782,1.906e-05,0.0,0 STARLINK-4729,1 53804U 22111AH  24046.30288696  .00001906  00000-0  13782-3 0  9995,2 53804  53.2165  40.9880 0001368  86.3878 273.7270 15.08837520 80152,6917.888,95.438,540.699,538.807,0.0
53804.0,STARLINK-4729,PAYLOAD,2024-02-15 23:10:00,15.08841721,0.0001549,53.217,38.0158,86.3714,273.7455,0.00020587,2.99e-05,0.0,0 STARLINK-4729,1 53804U 22111AH  24046.96528778  .00002990  00000-0  20587-3 0  9990,2 53804  53.2170  38.0158 0001549  86.3714 273.7455 15.08841721 80258,6917.875,95.437,540.812,538.669,0.0
53804.0,STARLINK-4729,PAYLOAD,2024-02-16 08:42:19,15.08854301,0.0001513,53.2168,36.2295,88.746,271.3705,0.00050108,7.699e-05,0.0,0 STARLINK-4729,1 53804U 22111AH  24047.36272414  .00007699  00000-0  50108-3 0  9991,2 53804  53.2168  36.2295 0001513  88.7460 271.3705 15.08854301 79508,6917.837,95.437,540.748,538.655,0.0
53804.0,STARLINK-4729,PAYLOAD,2024-02-17 03:46:57,15.0884239,0.00016,53.2172,32.6632,82.6783,277.4391,0.00027991,4.17e-05,0.0,0 STARLINK-4729,1 53804U 22111AH  24048.15761054  .00004170  00000-0  27991-3 0  9997,2 53804  53.2172  32.6632 0001600  82.6783 277.4391 15.08842390 79622,6917.873,95.437,540.845,538.631,0.0
53804.0,STARLINK-4729,PAYLOAD,2024-02-17 08:33:06,15.08850199,0.0001666,53.217,31.7693,90.4979,269.6204,0.0004818,7.39e-05,0.0,0 STARLINK-4729,1 53804U 22111AH  24048.35632823  .00007390  00000-0  48180-3 0  9990,2 53804  53.2170  31.7693 0001666  90.4979 269.6204 15.08850199 80469,6917.849,95.437,540.867,538.562,0.0
53804.0,STARLINK-4729,PAYLOAD,2024-02-18 08:23:53,15.08851919,0.0001781,53.2183,27.3053,98.5031,261.6163,0.00036661,5.553e-05,0.0,0 STARLINK-4729,1 53804U 22111AH  24049.34992578  .00005553  00000-0  36661-3 0  9996,2 53804  53.2183  27.3053 0001781  98.5031 261.6163 15.08851919 79803,6917.844,95.437,540.941,538.477,0.0
53804.0,STARLINK-4729,PAYLOAD,2024-02-19 03:28:31,15.08838833,0.000163,53.2176,23.7364,102.2379,257.8796,4.4919e-06,-2.17e-06,0.0,0 STARLINK-4729,1 53804U 22111AH  24050.14480927 -.00000217  00000-0  44919-5 0  9996,2 53804  53.2176  23.7364 0001630 102.2379 257.8796 15.08838833 79923,6917.884,95.438,540.877,538.621,0.0
53804.0,STARLINK-4729,PAYLOAD,2024-02-19 14:36:13,15.08842783,0.0001449,53.2173,21.6593,91.4603,268.6555,4.5074e-05,4.3e-06,0.0,0 STARLINK-4729,1 53804U 22111AH  24050.60848736  .00000430  00000-0  45074-4 0  9991,2 53804  53.2173  21.6593 0001449  91.4603 268.6555 15.08842783 80809,6917.872,95.437,540.739,538.734,0.0
53804.0,STARLINK-4729,PAYLOAD,2024-02-19 22:33:09,15.08836739,0.0001753,53.2197,20.1769,101.0229,259.0961,-8.0707e-05,-1.572e-05,0.0,0 STARLINK-4729,1 53804U 22111AH  24050.93969617 -.00001572  00000-0 -80707-4 0  9991,2 53804  53.2197  20.1769 0001753 101.0229 259.0961 15.08836739 80858,6917.89,95.438,540.968,538.543,0.0
53804.0,STARLINK-4729,PAYLOAD,2024-02-20 04:54:42,15.08840445,0.0001679,53.2192,18.9866,97.4792,262.6391,-1.1721e-05,-4.75e-06,0.0,0 STARLINK-4729,1 53804U 22111AH  24051.20465385 -.00000475  00000-0 -11721-4 0  9996,2 53804  53.2192  18.9866 0001679  97.4792 262.6391 15.08840445 80087,6917.879,95.438,540.906,538.583,0.0
53804.0,STARLINK-4729,PAYLOAD,2024-02-20 14:27:00,15.08838876,0.0001338,53.2176,17.199,88.7541,271.3605,-1.7546e-05,-5.67e-06,0.0,0 STARLINK-4729,1 53804U 22111AH  24051.60209085 -.00000567  00000-0 -17546-4 0  9996,2 53804  53.2176  17.1990 0001338  88.7541 271.3605 15.08838876 80951,6917.884,95.438,540.674,538.823,0.0
53804.0,STARLINK-4729,PAYLOAD,2024-02-21 14:17:47,15.08846447,0.000136,53.2177,12.7405,89.1058,271.009,0.00013035,1.788e-05,0.0,0 STARLINK-4729,1 53804U 22111AH  24052.59568858  .00001788  00000-0  13035-3 0  9993,2 53804  53.2177  12.7405 0001360  89.1058 271.0090 15.08846447 81103,6917.861,95.437,540.667,538.785,0.0
53804.0,STARLINK-4729,PAYLOAD,2024-02-22 04:36:16,15.08834858,0.0001438,53.2184,10.063,81.6008,278.5147,4.9336e-05,4.97e-06,0.0,0 STARLINK-4729,1 53804U 22111AH  24053.19186059  .00000497  00000-0  49336-4 0  9999,2 53804  53.2184  10.0630 0001438  81.6008 278.5147 15.08834858 80387,6917.896,95.438,540.756,538.766,0.0
53804.0,STARLINK-4729,PAYLOAD,2024-02-22 14:08:35,15.08840645,0.0001474,53.219,8.2802,88.5097,271.6064,0.00011764,1.585e-05,0.0,0 STARLINK-4729,1 53804U 22111AH  24053.58929655  .00001585  00000-0  11764-3 0  9991,2 53804  53.2190   8.2802 0001474  88.5097 271.6064 15.08840645 81258,6917.878,95.438,540.763,538.724,0.0
53804.0,STARLINK-4729,PAYLOAD,2024-02-23 02:51:39,15.08849771,0.000161,53.2183,5.9016,91.3733,268.7444,0.0001187,1.602e-05,0.0,0 STARLINK-4729,1 53804U 22111AH  24054.11921002  .00001602  00000-0  11870-3 0  9997,2 53804  53.2183   5.9016 0001610  91.3733 268.7444 15.08849771 80529,6917.851,95.437,540.829,538.602,0.0
